start=new Date('2023-04-13T00:00:00.000Z').valueOf();
sats=[{"NORAD_CAT_ID":"47868","OBJECT_ID":"2021-021J","OBJECT_NAME":"STARLINK-2323","RCS_SIZE":"LARGE","CLASSIFICATION_TYPE":"U","MEAN_MOTION":"15.06400054","FILE":"3886349","PERIAPSIS":"546.506","COUNTRY_CODE":"US","EPHEMERIS_TYPE":"0","GP_ID":"229980606","SITE":"AFETR","SEMIMAJOR_AXIS":"6925.348","CENTER_NAME":"EARTH","RA_OF_ASC_NODE":"299.7190","PERIOD":"95.592","REF_FRAME":"TEME","OBJECT_TYPE":"PAYLOAD","MEAN_ELEMENT_THEORY":"SGP4","ELEMENT_SET_NO":"999","TLE_LINE2":"2 47868  53.0562 299.7190 0001022  37.2189 322.8870 15.06400054116955","BSTAR":"0.00015332000000","MEAN_ANOMALY":"322.8870","INCLINATION":"53.0562","TIME_SYSTEM":"UTC","MEAN_MOTION_DOT":"0.00002003","APOAPSIS":"547.921","TLE_LINE1":"1 47868U 21021J   23102.55685740  .00002003  00000-0  15332-3 0  9999","LAUNCH_DATE":"2021-03-14","ARG_OF_PERICENTER":"37.2189","MEAN_MOTION_DDOT":"0.0000000000000","ECCENTRICITY":"0.00010220","DECAY_DATE":null,"EPOCH":"2023-04-12T13:21:52.479360","REV_AT_EPOCH":"11695"},{"MEAN_MOTION_DOT":"0.00023061","APOAPSIS":"547.843","TIME_SYSTEM":"UTC","ARG_OF_PERICENTER":"113.6237","LAUNCH_DATE":"2021-03-14","TLE_LINE1":"1 47869U 21021K   23101.96249593  .00023061  00000-0  15600-2 0  9990","ECCENTRICITY":"0.00011180","MEAN_MOTION_DDOT":"0.0000000000000","REV_AT_EPOCH":"11626","EPOCH":"2023-04-11T23:05:59.648352","DECAY_DATE":null,"ELEMENT_SET_NO":"999","MEAN_ELEMENT_THEORY":"SGP4","OBJECT_TYPE":"PAYLOAD","BSTAR":"0.00156000000000","TLE_LINE2":"2 47869  53.0539 352.3900 0001118 113.6237 246.4869 15.06447311116264","MEAN_ANOMALY":"246.4869","INCLINATION":"53.0539","PERIAPSIS":"546.294","FILE":"3886349","EPHEMERIS_TYPE":"0","COUNTRY_CODE":"US","GP_ID":"229980854","RA_OF_ASC_NODE":"352.3900","PERIOD":"95.589","REF_FRAME":"TEME","CENTER_NAME":"EARTH","SEMIMAJOR_AXIS":"6925.204","SITE":"AFETR","NORAD_CAT_ID":"47869","OBJECT_NAME":"STARLINK-2324","OBJECT_ID":"2021-021K","CLASSIFICATION_TYPE":"U","RCS_SIZE":"LARGE","MEAN_MOTION":"15.06447311"},{"DECAY_DATE":null,"EPOCH":"2023-04-12T18:38:20.029344","REV_AT_EPOCH":"11544","ECCENTRICITY":"0.00015380","MEAN_MOTION_DDOT":"0.0000000000000","TLE_LINE1":"1 47870U 21021L   23102.77662071  .00000858  00000-0  76528-4 0  9999","LAUNCH_DATE":"2021-03-14","ARG_OF_PERICENTER":"99.9242","TIME_SYSTEM":"UTC","APOAPSIS":"548.319","MEAN_MOTION_DOT":"0.00000858","INCLINATION":"53.0551","MEAN_ANOMALY":"260.1921","TLE_LINE2":"2 47870  53.0551  13.7288 0001538  99.9242 260.1921 15.06386954115441","BSTAR":"0.00007652800000","OBJECT_TYPE":"PAYLOAD","MEAN_ELEMENT_THEORY":"SGP4","ELEMENT_SET_NO":"999","SITE":"AFETR","SEMIMAJOR_AXIS":"6925.389","CENTER_NAME":"EARTH","REF_FRAME":"TEME","PERIOD":"95.593","RA_OF_ASC_NODE":"13.7288","GP_ID":"229987181","COUNTRY_CODE":"US","EPHEMERIS_TYPE":"0","FILE":"3886416","PERIAPSIS":"546.188","MEAN_MOTION":"15.06386954","RCS_SIZE":"LARGE","CLASSIFICATION_TYPE":"U","OBJECT_ID":"2021-021L","OBJECT_NAME":"STARLINK-2326","NORAD_CAT_ID":"47870"},{"MEAN_MOTION":"15.06455840","CLASSIFICATION_TYPE":"U","RCS_SIZE":"LARGE","OBJECT_NAME":"STARLINK-2327","OBJECT_ID":"2021-021M","NORAD_CAT_ID":"47871","REF_FRAME":"TEME","PERIOD":"95.589","RA_OF_ASC_NODE":"351.8068","CENTER_NAME":"EARTH","SEMIMAJOR_AXIS":"6925.177","SITE":"AFETR","GP_ID":"229954138","EPHEMERIS_TYPE":"0","COUNTRY_CODE":"US","PERIAPSIS":"546.221","FILE":"3886111","INCLINATION":"53.0556","MEAN_ANOMALY":"286.7561","BSTAR":"0.00157600000000","TLE_LINE2":"2 47871  53.0556 351.8068 0001186  73.3558 286.7561 15.06455840115708","ELEMENT_SET_NO":"999","MEAN_ELEMENT_THEORY":"SGP4","OBJECT_TYPE":"PAYLOAD","REV_AT_EPOCH":"11570","EPOCH":"2023-04-12T02:11:45.259584","DECAY_DATE":null,"ECCENTRICITY":"0.00011860","MEAN_MOTION_DDOT":"0.0000000000000","ARG_OF_PERICENTER":"73.3558","LAUNCH_DATE":"2021-03-14","TLE_LINE1":"1 47871U 21021M   23102.09149606  .00023306  00000-0  15760-2 0  9991","APOAPSIS":"547.864","MEAN_MOTION_DOT":"0.00023306","TIME_SYSTEM":"UTC"},{"GP_ID":"229980106","SITE":"AFETR","SEMIMAJOR_AXIS":"6925.212","CENTER_NAME":"EARTH","REF_FRAME":"TEME","PERIOD":"95.589","RA_OF_ASC_NODE":"351.8896","PERIAPSIS":"546.591","FILE":"3886349","COUNTRY_CODE":"US","EPHEMERIS_TYPE":"0","RCS_SIZE":"LARGE","CLASSIFICATION_TYPE":"U","MEAN_MOTION":"15.06444467","NORAD_CAT_ID":"47873","OBJECT_ID":"2021-021P","OBJECT_NAME":"STARLINK-2329","MEAN_MOTION_DDOT":"0.0000000000000","ECCENTRICITY":"0.00007020","DECAY_DATE":null,"EPOCH":"2023-04-12T01:45:12.484224","REV_AT_EPOCH":"11616","TIME_SYSTEM":"UTC","APOAPSIS":"547.563","MEAN_MOTION_DOT":"0.00027217","TLE_LINE1":"1 47873U 21021P   23102.07306116  .00027217  00000-0  18368-2 0  9994","LAUNCH_DATE":"2021-03-14","ARG_OF_PERICENTER":"84.3809","MEAN_ANOMALY":"275.7260","INCLINATION":"53.0554","OBJECT_TYPE":"PAYLOAD","MEAN_ELEMENT_THEORY":"SGP4","ELEMENT_SET_NO":"999","TLE_LINE2":"2 47873  53.0554 351.8896 0000702  84.3809 275.7260 15.06444467116169","BSTAR":"0.00183680000000"},{"GP_ID":"229957191","SEMIMAJOR_AXIS":"6925.332","SITE":"AFETR","RA_OF_ASC_NODE":"304.7695","PERIOD":"95.592","REF_FRAME":"TEME","CENTER_NAME":"EARTH","FILE":"3886257","PERIAPSIS":"545.852","COUNTRY_CODE":"US","EPHEMERIS_TYPE":"0","RCS_SIZE":"LARGE","CLASSIFICATION_TYPE":"U","MEAN_MOTION":"15.06405350","NORAD_CAT_ID":"47874","OBJECT_ID":"2021-021Q","OBJECT_NAME":"STARLINK-2330","ECCENTRICITY":"0.00019430","MEAN_MOTION_DDOT":"0.0000000000000","DECAY_DATE":null,"REV_AT_EPOCH":"11639","EPOCH":"2023-04-12T13:07:55.733376","TIME_SYSTEM":"UTC","MEAN_MOTION_DOT":"0.00010305","APOAPSIS":"548.543","TLE_LINE1":"1 47874U 21021Q   23102.54717284  .00010305  00000-0  70960-3 0  9996","ARG_OF_PERICENTER":"102.7219","LAUNCH_DATE":"2021-03-14","MEAN_ANOMALY":"257.3987","INCLINATION":"53.0485","MEAN_ELEMENT_THEORY":"SGP4","OBJECT_TYPE":"PAYLOAD","ELEMENT_SET_NO":"999","BSTAR":"0.00070960000000","TLE_LINE2":"2 47874  53.0485 304.7695 0001943 102.7219 257.3987 15.06405350116390"},{"TLE_LINE1":"1 47875U 21021R   23102.13111640  .00022902  00000-0  15488-2 0  9995","LAUNCH_DATE":"2021-03-14","ARG_OF_PERICENTER":"83.8964","TIME_SYSTEM":"UTC","MEAN_MOTION_DOT":"0.00022902","APOAPSIS":"547.817","DECAY_DATE":null,"EPOCH":"2023-04-12T03:08:48.456960","REV_AT_EPOCH":"11556","ECCENTRICITY":"0.00011490","MEAN_MOTION_DDOT":"0.0000000000000","TLE_LINE2":"2 47875  53.0567   1.6267 0001149  83.8964 276.2156 15.06462858115566","BSTAR":"0.00154880000000","OBJECT_TYPE":"PAYLOAD","MEAN_ELEMENT_THEORY":"SGP4","ELEMENT_SET_NO":"999","INCLINATION":"53.0567","MEAN_ANOMALY":"276.2156","COUNTRY_CODE":"US","EPHEMERIS_TYPE":"0","FILE":"3886349","PERIAPSIS":"546.225","SITE":"AFETR","SEMIMAJOR_AXIS":"6925.156","CENTER_NAME":"EARTH","REF_FRAME":"TEME","PERIOD":"95.588","RA_OF_ASC_NODE":"1.6267","GP_ID":"229981593","OBJECT_ID":"2021-021R","OBJECT_NAME":"STARLINK-2331","NORAD_CAT_ID":"47875","MEAN_MOTION":"15.06462858","CLASSIFICATION_TYPE":"U","RCS_SIZE":"LARGE"},{"MEAN_MOTION_DDOT":"0.0000000000000","ECCENTRICITY":"0.00012850","DECAY_DATE":null,"EPOCH":"2023-04-12T02:52:52.887648","REV_AT_EPOCH":"11556","TIME_SYSTEM":"UTC","MEAN_MOTION_DOT":"0.00029458","APOAPSIS":"547.914","TLE_LINE1":"1 47876U 21021S   23102.12005657  .00029458  00000-0  19850-2 0  9995","LAUNCH_DATE":"2021-03-14","ARG_OF_PERICENTER":"77.8794","MEAN_ANOMALY":"282.2339","INCLINATION":"53.0553","OBJECT_TYPE":"PAYLOAD","MEAN_ELEMENT_THEORY":"SGP4","ELEMENT_SET_NO":"999","TLE_LINE2":"2 47876  53.0553   1.6796 0001285  77.8794 282.2339 15.06461672115567","BSTAR":"0.00198500000000","GP_ID":"229980357","SITE":"AFETR","SEMIMAJOR_AXIS":"6925.160","CENTER_NAME":"EARTH","PERIOD":"95.588","REF_FRAME":"TEME","RA_OF_ASC_NODE":"1.6796","PERIAPSIS":"546.135","FILE":"3886349","COUNTRY_CODE":"US","EPHEMERIS_TYPE":"0","RCS_SIZE":"LARGE","CLASSIFICATION_TYPE":"U","MEAN_MOTION":"15.06461672","NORAD_CAT_ID":"47876","OBJECT_ID":"2021-021S","OBJECT_NAME":"STARLINK-2332"},{"TIME_SYSTEM":"UTC","MEAN_MOTION_DOT":"0.00002333","APOAPSIS":"547.750","TLE_LINE1":"1 47877U 21021T   23102.73193869  .00002333  00000-0  17550-3 0  9995","LAUNCH_DATE":"2021-03-14","ARG_OF_PERICENTER":"95.6029","ECCENTRICITY":"0.00007280","MEAN_MOTION_DDOT":"0.0000000000000","DECAY_DATE":null,"EPOCH":"2023-04-12T17:33:59.502816","REV_AT_EPOCH":"11565","OBJECT_TYPE":"PAYLOAD","MEAN_ELEMENT_THEORY":"SGP4","ELEMENT_SET_NO":"999","TLE_LINE2":"2 47877  53.0545 358.9290 0000728  95.6029 264.5043 15.06389460115655","BSTAR":"0.00017550000000","MEAN_ANOMALY":"264.5043","INCLINATION":"53.0545","FILE":"3886417","PERIAPSIS":"546.742","COUNTRY_CODE":"US","EPHEMERIS_TYPE":"0","GP_ID":"229987691","SITE":"AFETR","SEMIMAJOR_AXIS":"6925.381","CENTER_NAME":"EARTH","REF_FRAME":"TEME","PERIOD":"95.593","RA_OF_ASC_NODE":"358.9290","NORAD_CAT_ID":"47877","OBJECT_ID":"2021-021T","OBJECT_NAME":"STARLINK-2333","CLASSIFICATION_TYPE":"U","RCS_SIZE":"LARGE","MEAN_MOTION":"15.06389460"},{"NORAD_CAT_ID":"47878","OBJECT_ID":"2021-021U","OBJECT_NAME":"STARLINK-2335","RCS_SIZE":"LARGE","CLASSIFICATION_TYPE":"U","MEAN_MOTION":"15.06416735","FILE":"3886349","PERIAPSIS":"546.215","COUNTRY_CODE":"US","EPHEMERIS_TYPE":"0","GP_ID":"229980855","SEMIMAJOR_AXIS":"6925.297","SITE":"AFETR","PERIOD":"95.591","REF_FRAME":"TEME","RA_OF_ASC_NODE":"1.5609","CENTER_NAME":"EARTH","MEAN_ELEMENT_THEORY":"SGP4","OBJECT_TYPE":"PAYLOAD","ELEMENT_SET_NO":"999","BSTAR":"0.00187280000000","TLE_LINE2":"2 47878  53.0552   1.5609 0001368  67.3085 292.8049 15.06416735115575","MEAN_ANOMALY":"292.8049","INCLINATION":"53.0552","TIME_SYSTEM":"UTC","MEAN_MOTION_DOT":"0.00027737","APOAPSIS":"548.110","TLE_LINE1":"1 47878U 21021U   23102.14586143  .00027737  00000-0  18728-2 0  9994","ARG_OF_PERICENTER":"67.3085","LAUNCH_DATE":"2021-03-14","ECCENTRICITY":"0.00013680","MEAN_MOTION_DDOT":"0.0000000000000","DECAY_DATE":null,"REV_AT_EPOCH":"11557","EPOCH":"2023-04-12T03:30:02.427552"}];
